NORAD_CAT_ID,OBJECT_NAME,OBJECT_TYPE,EPOCH,MEAN_MOTION,ECCENTRICITY,INCLINATION,RA_OF_ASC_NODE,ARG_OF_PERICENTER,MEAN_ANOMALY,BSTAR,MEAN_MOTION_DOT,MEAN_MOTION_DDOT,TLE_LINE0,TLE_LINE1,TLE_LINE2,SEMIMAJOR_AXIS,PERIOD,APOGEE,PERIGEE,DECAYED
52302.0,STARLINK-3564,PAYLOAD,2023-11-05 18:04:32,15.08843766,0.0001574,53.2166,327.0825,89.4242,270.693,8.6347e-05,1.087e-05,0.0,0 STARLINK-3564,1 52302U 22041AT  23309.75315728  .00001087  00000-0  86347-4 0  9994,2 52302  53.2166 327.0825 0001574  89.4242 270.6930 15.08843766 85570,6917.869,95.437,540.823,538.645,0.0
52302.0,STARLINK-3564,PAYLOAD,2023-11-06 02:01:28,15.0884029,0.0001868,53.2178,325.5971,98.3469,261.7735,-3.0201e-06,-3.36e-06,0.0,0 STARLINK-3564,1 52302U 22041AT  23310.08436001 -.00000336  00000-0 -30201-5 0  9997,2 52302  53.2178 325.5971 0001868  98.3469 261.7735 15.08840290 86837,6917.88,95.438,541.037,538.452,0.0
52302.0,STARLINK-3564,PAYLOAD,2023-11-06 08:23:00,15.08857459,0.0001547,53.2164,324.4033,80.4472,279.6695,0.00021272,3.101e-05,0.0,0 STARLINK-3564,1 52302U 22041AT  23310.34930859  .00003101  00000-0  21272-3 0  9993,2 52302  53.2164 324.4033 0001547  80.4472 279.6695 15.08857459 86871,6917.827,95.436,540.762,538.622,0.0
52302.0,STARLINK-3564,PAYLOAD,2023-11-06 17:55:20,15.0882688,0.0001667,53.2169,322.6199,74.9739,285.1437,-0.0001299,-2.354e-05,0.0,0 STARLINK-3564,1 52302U 22041AT  23310.74676704 -.00002354  00000-0 -12990-3 0  9991,2 52302  53.2169 322.6199 0001667  74.9739 285.1437 15.08826880 86933,6917.92,95.438,540.939,538.632,0.0
52302.0,STARLINK-3564,PAYLOAD,2023-11-07 09:49:13,15.08818745,0.0001507,53.2171,319.65,104.0489,256.0671,-0.00015938,-2.822e-05,0.0,0 STARLINK-3564,1 52302U 22041AT  23311.40918363 -.00002822  00000-0 -15938-3 0  9990,2 52302  53.2171 319.6500 0001507 104.0489 256.0671 15.08818745 87038,6917.945,95.439,540.853,538.768,0.0
52302.0,STARLINK-3564,PAYLOAD,2023-11-08 09:39:58,15.08863805,0.000144,53.2177,315.1854,87.0513,273.0644,0.00018742,2.698e-05,0.0,0 STARLINK-3564,1 52302U 22041AT  23312.40275956  .00002698  00000-0  18742-3 0  9990,2 52302  53.2177 315.1854 0001440  87.0513 273.0644 15.08863805 87183,6917.808,95.436,540.669,538.676,0.0
52302.0,STARLINK-3564,PAYLOAD,2023-11-08 17:36:55,15.08838842,0.0001636,53.2166,313.7047,80.2428,279.8749,0.00025366,3.751e-05,0.0,0 STARLINK-3564,1 52302U 22041AT  23312.73397523  .00003751  00000-0  25366-3 0  9992,2 52302  53.2166 313.7047 0001636  80.2428 279.8749 15.08838842 87235,6917.884,95.438,540.881,538.617,0.0
52302.0,STARLINK-3564,PAYLOAD,2023-11-09 09:30:46,15.08848477,0.0001436,53.218,310.7209,104.2515,255.8636,0.00027042,4.019e-05,0.0,0 STARLINK-3564,1 52302U 22041AT  23313.39636958  .00004019  00000-0  27042-3 0  9994,2 52302  53.2180 310.7209 0001436 104.2515 255.8636 15.08848477 86121,6917.854,95.437,540.713,538.726,0.0
52302.0,STARLINK-3564,PAYLOAD,2023-11-09 17:27:42,15.08839815,0.0001352,53.2178,309.2411,85.2915,274.8232,0.00017312,2.468e-05,0.0,0 STARLINK-3564,1 52302U 22041AT  23313.72757807  .00002468  00000-0  17312-3 0  9993,2 52302  53.2178 309.2411 0001352  85.2915 274.8232 15.08839815 87383,6917.881,95.438,540.681,538.811,0.0
52302.0,STARLINK-3564,PAYLOAD,2023-11-10 03:00:02,15.08834887,0.0001308,53.2181,307.4546,95.5956,264.5185,-0.00025815,-4.393e-05,0.0,0 STARLINK-3564,1 52302U 22041AT  23314.12503175 -.00004393  00000-0 -25815-3 0  9993,2 52302  53.2181 307.4546 0001308  95.5956 264.5185 15.08834887 87440,6917.896,95.438,540.666,538.856,0.0
52302.0,STARLINK-3564,PAYLOAD,2023-11-10 09:21:35,15.0883706,0.0001423,53.2182,306.2635,101.6152,258.5,-0.00021655,-3.732e-05,0.0,0 STARLINK-3564,1 52302U 22041AT  23314.38998976 -.00003732  00000-0 -21655-3 0  9992,2 52302  53.2182 306.2635 0001423 101.6152 258.5000 15.08837060 86277,6917.889,95.438,540.739,538.77,0.0
52302.0,STARLINK-3564,PAYLOAD,2023-11-11 02:50:48,15.08841069,0.000134,53.2179,302.999,63.9478,296.1652,2.9835e-05,1.87e-06,0.0,0 STARLINK-3564,1 52302U 22041AT  23315.11862006  .00000187  00000-0  29835-4 0  9996,2 52302  53.2179 302.9990 0001340  63.9478 296.1652 15.08841069 87590,6917.877,95.437,540.669,538.815,0.0
52302.0,STARLINK-3564,PAYLOAD,2023-11-11 09:12:20,15.08860335,0.0001416,53.2181,301.8038,97.2262,262.8891,7.1453e-05,8.5e-06,0.0,0 STARLINK-3564,1 52302U 22041AT  23315.38356516  .00000850  00000-0  71453-4 0  9999,2 52302  53.2181 301.8038 0001416  97.2262 262.8891 15.08860335 86422,6917.818,95.436,540.663,538.704,0.0
52302.0,STARLINK-3564,PAYLOAD,2023-11-12 02:41:35,15.08835099,0.0001617,53.2174,298.5305,113.7305,246.3856,0.00022524,3.298e-05,0.0,0 STARLINK-3564,1 52302U 22041AT  23316.11221563  .00003298  00000-0  22524-3 0  9997,2 52302  53.2174 298.5305 0001617 113.7305 246.3856 15.08835099 87741,6917.895,95.438,540.879,538.642,0.0
52302.0,STARLINK-3564,PAYLOAD,2023-11-12 05:52:21,15.08840068,0.0001223,53.2172,297.9355,93.1197,266.9935,0.00023567,3.465e-05,0.0,0 STARLINK-3564,1 52302U 22041AT  23316.24469389  .00003465  00000-0  23567-3 0  9995,2 52302  53.2172 297.9355 0001223  93.1197 266.9935 15.08840068 86556,6917.88,95.438,540.591,538.899,0.0
52302.0,STARLINK-3564,PAYLOAD,2023-11-13 04:07:45,15.08849882,0.0001466,53.218,293.7778,103.6715,256.4441,-7.5023e-06,-4.07e-06,0.0,0 STARLINK-3564,1 52302U 22041AT  23317.17205315 -.00000407  00000-0 -75023-5 0  9996,2 52302  53.2180 293.7778 0001466 103.6715 256.4441 15.08849882 87909,6917.85,95.437,540.729,538.701,0.0
52302.0,STARLINK-3564,PAYLOAD,2023-11-13 05:43:08,15.08852005,0.0001578,53.2183,293.4813,111.6895,248.4265,8.717e-06,-1.49e-06,0.0,0 STARLINK-3564,1 52302U 22041AT  23317.23829086 -.00000149  00000-0  87170-5 0  9998,2 52302  53.2183 293.4813 0001578 111.6895 248.4265 15.08852005 86704,6917.844,95.437,540.8,538.617,0.0
52302.0,STARLINK-3564,PAYLOAD,2023-11-13 21:37:00,15.08815696,0.0001412,53.2188,290.5092,100.1487,259.9665,0.00046222,7.071e-05,0.0,0 STARLINK-3564,1 52302U 22041AT  23317.90070487  .00007071  00000-0  46222-3 0  9996,2 52302  53.2188 290.5092 0001412 100.1487 259.9665 15.08815696 86800,6917.955,95.439,540.796,538.843,0.0
52302.0,STARLINK-3564,PAYLOAD,2023-11-14 03:58:32,15.08844725,0.0001393,53.2178,289.317,97.3357,262.7794,4.4106e-05,4.14e-06,0.0,0 STARLINK-3564,1 52302U 22041AT  23318.16565240  .00000414  00000-0  44106-4 0  9995,2 52302  53.2178 289.3170 0001393  97.3357 262.7794 15.08844725 88052,6917.866,95.437,540.695,538.767,0.0
52302.0,STARLINK-3564,PAYLOAD,2023-11-14 07:09:18,15.08848152,0.0001382,53.2177,288.722,94.3853,265.7297,7.0462e-05,8.34e-06,0.0,0 STARLINK-3564,1 52302U 22041AT  23318.29812902  .00000834  00000-0  70462-4 0  9999,2 52302  53.2177 288.7220 0001382  94.3853 265.7297 15.08848152 86862,6917.855,95.437,540.677,538.764,0.0
52302.0,STARLINK-3564,PAYLOAD,2023-11-14 15:06:14,15.08841691,0.0001499,53.2181,287.2344,89.8744,270.242,5.7101e-05,6.21e-06,0.0,0 STARLINK-3564,1 52302U 22041AT  23318.62933352  .00000621  00000-0  57101-4 0  9998,2 52302  53.2181 287.2344 0001499  89.8744 270.2420 15.08841691 86911,6917.875,95.437,540.777,538.703,0.0
52302.0,STARLINK-3564,PAYLOAD,2023-11-15 03:49:20,15.08833764,0.0001786,53.2191,284.8557,96.1302,263.9894,-3.8963e-05,-9.08e-06,0.0,0 STARLINK-3564,1 52302U 22041AT  23319.15926299 -.00000908  00000-0 -38963-4 0  9994,2 52302  53.2191 284.8557 0001786  96.1302 263.9894 15.08833764 88201,6917.899,95.438,541.0,538.529,0.0
52302.0,STARLINK-3564,PAYLOAD,2023-11-15 07:00:06,15.08838202,0.0001517,53.2167,284.261,86.8215,273.2951,-6.7942e-06,-3.96e-06,0.0,0 STARLINK-3564,1 52302U 22041AT  23319.29173903 -.00000396  00000-0 -67942-5 0  9996,2 52302  53.2167 284.2610 0001517  86.8215 273.2951 15.08838202 87017,6917.886,95.438,540.8,538.701,0.0
52302.0,STARLINK-3564,PAYLOAD,2023-11-15 14:57:01,15.08836463,0.0001495,53.2169,282.7737,85.9417,274.1746,4.4805e-05,4.25e-06,0.0,0 STARLINK-3564,1 52302U 22041AT  23319.62293938  .00000425  00000-0  44805-4 0  9997,2 52302  53.2169 282.7737 0001495  85.9417 274.1746 15.08836463 87065,6917.891,95.438,540.79,538.722,0.0
52302.0,STARLINK-3564,PAYLOAD,2023-11-16 06:50:52,15.08845706,0.000164,53.2182,279.7987,90.565,269.553,5.7724e-05,6.31e-06,0.0,0 STARLINK-3564,1 52302U 22041AT  23320.28533363  .00000631  00000-0  57724-4 0  9993,2 52302  53.2182 279.7987 0001640  90.5650 269.5530 15.08845706 88370,6917.863,95.437,540.862,538.593,0.0
52302.0,STARLINK-3564,PAYLOAD,2023-11-17 03:30:54,15.08815753,0.0001419,53.2188,275.9317,95.0686,265.0468,0.00036517,5.525e-05,0.0,0 STARLINK-3564,1 52302U 22041AT  23321.14646638  .00005525  00000-0  36517-3 0  9992,2 52302  53.2188 275.9317 0001419  95.0686 265.0468 15.08815753 88509,6917.955,95.439,540.801,538.838,0.0
52302.0,STARLINK-3564,PAYLOAD,2023-11-17 06:41:40,15.08839852,0.0001542,53.219,275.3358,91.435,268.6819,6.3957e-05,7.3e-06,0.0,0 STARLINK-3564,1 52302U 22041AT  23321.27893739  .00000730  00000-0  63957-4 0  9994,2 52302  53.2190 275.3358 0001542  91.4350 268.6819 15.08839852 88523,6917.881,95.438,540.813,538.679,0.0
52302.0,STARLINK-3564,PAYLOAD,2023-11-17 14:38:35,15.08841053,0.0001553,53.2192,273.8506,88.7676,271.3494,4.3727e-05,4.08e-06,0.0,0 STARLINK-3564,1 52302U 22041AT  23321.61013728  .00000408  00000-0  43727-4 0  9999,2 52302  53.2192 273.8506 0001553  88.7676 271.3494 15.08841053 87362,6917.877,95.437,540.817,538.668,0.0
52302.0,STARLINK-3564,PAYLOAD,2023-11-18 06:32:27,15.08845244,0.0001586,53.2181,270.8763,100.6165,259.5006,9.4464e-06,-1.38e-06,0.0,0 STARLINK-3564,1 52302U 22041AT  23322.27253525 -.00000138  00000-0  94464-5 0  9999,2 52302  53.2181 270.8763 0001586 100.6165 259.5006 15.08845244 87469,6917.864,95.437,540.827,538.632,0.0
52302.0,STARLINK-3564,PAYLOAD,2023-11-19 01:37:04,15.08838708,0.0001674,53.2177,267.3068,101.1337,258.9843,2.4229e-05,9.8e-07,0.0,0 STARLINK-3564,1 52302U 22041AT  23323.06741801  .00000098  00000-0  24229-4 0  9991,2 52302  53.2177 267.3068 0001674 101.1337 258.9843 15.08838708 88794,6917.884,95.438,540.907,538.591,0.0
